{
    "links": {
        "self": "http://www.neowsapp.com/rest/v1/neo/3789684?api_key=iIulBulltgU6a56xZRHN4H3l9WmuAYTsLGpBGhQ2"
    },
    "id": "3789684",
    "neo_reference_id": "3789684",
    "name": "(2017 WL15)",
    "designation": "2017 WL15",
    "nasa_jpl_url": "http://ssd.jpl.nasa.gov/sbdb.cgi?sstr=3789684",
    "absolute_magnitude_h": 25.8,
    "estimated_diameter": {
        "kilometers": {
            "estimated_diameter_min": 0.0183888672,
            "estimated_diameter_max": 0.0411187571
        },
        "meters": {
            "estimated_diameter_min": 18.388867207,
            "estimated_diameter_max": 41.1187571041
        },
        "miles": {
            "estimated_diameter_min": 0.0114263088,
            "estimated_diameter_max": 0.0255500032
        },
        "feet": {
            "estimated_diameter_min": 60.3309310875,
            "estimated_diameter_max": 134.9040630575
        }
    },
    "is_potentially_hazardous_asteroid": false,
    "close_approach_data": [
        {
            "close_approach_date": "1971-05-22",
            "close_approach_date_full": "1971-May-22 07:38",
            "epoch_date_close_approach": 43745880000,
            "relative_velocity": {
                "kilometers_per_second": "17.8776764828",
                "kilometers_per_hour": "64359.635337936",
                "miles_per_hour": "39990.5745242858"
            },
            "miss_distance": {
                "astronomical": "0.0092010248",
                "lunar": "3.5791986472",
                "kilometers": "1376453.711897176",
                "miles": "855288.6763099888"
            },
            "orbiting_body": "Earth"
        },
        {
            "close_approach_date": "2017-11-20",
            "close_approach_date_full": "2017-Nov-20 12:16",
            "epoch_date_close_approach": 1511180160000,
            "relative_velocity": {
                "kilometers_per_second": "17.9120597676",
                "kilometers_per_hour": "64483.4151634655",
                "miles_per_hour": "40067.48649421"
            },
            "miss_distance": {
                "astronomical": "0.0243701723",
                "lunar": "9.4799970247",
                "kilometers": "3645725.867613001",
                "miles": "2265349.0085053738"
            },
            "orbiting_body": "Earth"
        },
        {
            "close_approach_date": "2021-12-08",
            "close_approach_date_full": "2021-Dec-08 21:04",
            "epoch_date_close_approach": 1638997440000,
            "relative_velocity": {
                "kilometers_per_second": "28.9216104243",
                "kilometers_per_hour": "104117.7975275797",
                "miles_per_hour": "64694.7503581786"
            },
            "miss_distance": {
                "astronomical": "0.4265972853",
                "lunar": "165.9463439817",
                "kilometers": "63818045.228662311",
                "miles": "39654694.4924734518"
            },
            "orbiting_body": "Earth"
        },
        {
            "close_approach_date": "2081-05-20",
            "close_approach_date_full": "2081-May-20 14:24",
            "epoch_date_close_approach": 3514976640000,
            "relative_velocity": {
                "kilometers_per_second": "18.5935724463",
                "kilometers_per_hour": "66936.8608068276",
                "miles_per_hour": "41591.9622052202"
            },
            "miss_distance": {
                "astronomical": "0.026219665",
                "lunar": "10.199449685",
                "kilometers": "3922406.03611355",
                "miles": "2437270.09312499"
            },
            "orbiting_body": "Earth"
        }
    ],
    "orbital_data": {
        "orbit_id": "1",
        "orbit_determination_date": "2017-11-26 18:12:12",
        "first_observation_date": "2017-11-24",
        "last_observation_date": "2017-11-26",
        "data_arc_in_days": 2,
        "observations_used": 32,
        "orbit_uncertainty": "8",
        "minimum_orbit_intersection": ".000916649",
        "jupiter_tisserand_invariant": "5.043",
        "epoch_osculation": "2458082.5",
        "eccentricity": ".4162451283564986",
        "semi_major_axis": "1.225931933964385",
        "inclination": "25.17041942515214",
        "ascending_node_longitude": "240.4065461789723",
        "orbital_period": "495.7902294722012",
        "perihelion_distance": ".7156437387550494",
        "perihelion_argument": "89.71129768877462",
        "aphelion_distance": "1.736220129173722",
        "perihelion_time": "2458019.168532941394",
        "mean_anomaly": "45.98583591566423",
        "mean_motion": ".7261135427844995",
        "equinox": "J2000",
        "orbit_class": {
            "orbit_class_type": "APO",
            "orbit_class_description": "Near-Earth asteroid orbits which cross the Earth’s orbit similar to that of 1862 Apollo",
            "orbit_class_range": "a (semi-major axis) > 1.0 AU; q (perihelion) < 1.017 AU"
        }
    },
    "is_sentry_object": false
}